NORAD_CAT_ID,OBJECT_NAME,OBJECT_TYPE,EPOCH,MEAN_MOTION,ECCENTRICITY,INCLINATION,RA_OF_ASC_NODE,ARG_OF_PERICENTER,MEAN_ANOMALY,BSTAR,MEAN_MOTION_DOT,MEAN_MOTION_DDOT,TLE_LINE0,TLE_LINE1,TLE_LINE2,SEMIMAJOR_AXIS,PERIOD,APOGEE,PERIGEE,DECAYED
53832.0,STARLINK-4747,PAYLOAD,2023-06-14 06:01:14,15.08849571,0.000118,53.217,110.5223,89.7911,270.3216,8.7167e-05,1.1e-05,0.0,0 STARLINK-4747,1 53832U 22114Q   23165.25086565  .00001100  00000-0  87167-4 0  9990,2 53832  53.2170 110.5223 0001180  89.7911 270.3216 15.08849571 41958,6917.851,95.437,540.532,538.9,0.0
53832.0,STARLINK-4747,PAYLOAD,2023-06-14 20:19:44,15.08832815,0.0001233,53.2169,107.8464,89.8339,270.2794,1.8584e-05,8e-08,0.0,0 STARLINK-4747,1 53832U 22114Q   23165.84703907  .00000008  00000-0  18584-4 0  9994,2 53832  53.2169 107.8464 0001233  89.8339 270.2794 15.08832815 42040,6917.902,95.438,540.62,538.914,0.0
53832.0,STARLINK-4747,PAYLOAD,2023-06-15 02:41:16,15.08835705,0.0001223,53.2169,106.6561,90.6968,269.4164,1.1044e-05,-1.12e-06,0.0,0 STARLINK-4747,1 53832U 22114Q   23166.11199856 -.00000112  00000-0  11044-4 0  9998,2 53832  53.2169 106.6561 0001223  90.6968 269.4164 15.08835705 41548,6917.894,95.438,540.605,538.912,0.0
53832.0,STARLINK-4747,PAYLOAD,2023-06-16 02:32:02,15.08849821,0.0001195,53.217,102.196,89.3942,270.7187,6.5588e-05,7.56e-06,0.0,0 STARLINK-4747,1 53832U 22114Q   23167.10558889  .00000756  00000-0  65588-4 0  9998,2 53832  53.2170 102.1960 0001195  89.3942 270.7187 15.08849821 41699,6917.85,95.437,540.542,538.889,0.0
53832.0,STARLINK-4747,PAYLOAD,2023-06-16 05:42:48,15.08852825,0.0001222,53.217,101.6008,90.2654,269.8478,8.9046e-05,1.13e-05,0.0,0 STARLINK-4747,1 53832U 22114Q   23167.23806602  .00001130  00000-0  89046-4 0  9993,2 53832  53.2170 101.6008 0001222  90.2654 269.8478 15.08852825 42251,6917.841,95.437,540.552,538.861,0.0
53832.0,STARLINK-4747,PAYLOAD,2023-06-17 11:55:09,15.08839178,0.0001214,53.2168,95.9519,86.8076,273.3055,7.2947e-05,8.73e-06,0.0,0 STARLINK-4747,1 53832U 22114Q   23168.49663347  .00000873  00000-0  72947-4 0  9994,2 53832  53.2168  95.9519 0001214  86.8076 273.3055 15.08839178 42448,6917.883,95.438,540.588,538.908,0.0
53832.0,STARLINK-4747,PAYLOAD,2023-06-17 21:27:30,15.08819195,0.0001602,53.217,94.1664,71.8675,288.2491,-0.00019575,-3.4e-05,0.0,0 STARLINK-4747,1 53832U 22114Q   23168.89409813 -.00003400  00000-0 -19575-3 0  9992,2 53832  53.2170  94.1664 0001602  71.8675 288.2491 15.08819195 41965,6917.944,95.439,540.917,538.701,0.0
53832.0,STARLINK-4747,PAYLOAD,2023-06-18 03:49:02,15.08825505,0.0001607,53.2166,92.9772,73.8118,286.3051,-0.00012673,-2.304e-05,0.0,0 STARLINK-4747,1 53832U 22114Q   23169.15905484 -.00002304  00000-0 -12673-3 0  9991,2 53832  53.2166  92.9772 0001607  73.8118 286.3051 15.08825505 42004,6917.925,95.438,540.901,538.678,0.0
53832.0,STARLINK-4747,PAYLOAD,2023-06-18 11:45:57,15.0883397,0.0001107,53.217,91.4918,88.7961,271.3157,-0.00011078,-2.05e-05,0.0,0 STARLINK-4747,1 53832U 22114Q   23169.49024849 -.00002050  00000-0 -11078-3 0  9991,2 53832  53.2170  91.4918 0001107  88.7961 271.3157 15.08833970 42591,6917.899,95.438,540.53,538.998,0.0
53832.0,STARLINK-4747,PAYLOAD,2023-06-18 18:07:30,15.08832968,0.0001133,53.2174,90.3017,93.8398,266.2724,4.5512e-06,-2.15e-06,0.0,0 STARLINK-4747,1 53832U 22114Q   23169.75520837 -.00000215  00000-0  45512-5 0  9990,2 53832  53.2174  90.3017 0001133  93.8398 266.2724 15.08832968 42097,6917.902,95.438,540.551,538.983,0.0
53832.0,STARLINK-4747,PAYLOAD,2023-06-19 03:39:48,15.08845911,0.0001139,53.2166,88.5183,91.331,268.7813,0.00015549,2.188e-05,0.0,0 STARLINK-4747,1 53832U 22114Q   23170.15264047  .00002188  00000-0  15549-3 0  9999,2 53832  53.2166  88.5183 0001139  91.3310 268.7813 15.08845911 42159,6917.862,95.437,540.515,538.939,0.0
53832.0,STARLINK-4747,PAYLOAD,2023-06-20 03:30:35,15.08847553,0.0001126,53.2167,84.058,88.6714,271.4407,0.00039413,5.992e-05,0.0,0 STARLINK-4747,1 53832U 22114Q   23171.14624249  .00005992  00000-0  39413-3 0  9995,2 53832  53.2167  84.0580 0001126  88.6714 271.4407 15.08847553 42306,6917.857,95.437,540.501,538.943,0.0
53832.0,STARLINK-4747,PAYLOAD,2023-06-20 11:27:31,15.08846281,0.0001254,53.2168,82.5707,79.0669,281.0464,0.00024092,3.549e-05,0.0,0 STARLINK-4747,1 53832U 22114Q   23171.47744488  .00003549  00000-0  24092-3 0  9992,2 53832  53.2168  82.5707 0001254  79.0669 281.0464 15.08846281 42897,6917.861,95.437,540.594,538.859,0.0
53832.0,STARLINK-4747,PAYLOAD,2023-06-20 17:49:04,15.08837467,0.0001638,53.2163,81.3822,81.8745,278.2433,1.0304e-05,-1.24e-06,0.0,0 STARLINK-4747,1 53832U 22114Q   23171.74240897 -.00000124  00000-0  10304-4 0  9996,2 53832  53.2163  81.3822 0001638  81.8745 278.2433 15.08837467 42394,6917.888,95.438,540.886,538.62,0.0
53832.0,STARLINK-4747,PAYLOAD,2023-06-21 11:18:18,15.08839572,0.0001274,53.2173,78.1108,90.4277,269.6861,9.4616e-05,1.218e-05,0.0,0 STARLINK-4747,1 53832U 22114Q   23172.47105002  .00001218  00000-0  94616-4 0  9997,2 53832  53.2173  78.1108 0001274  90.4277 269.6861 15.08839572 43049,6917.882,95.438,540.628,538.865,0.0
53832.0,STARLINK-4747,PAYLOAD,2023-06-22 00:01:23,15.08851009,0.0001151,53.2158,75.7318,85.364,274.7484,0.00048054,7.37e-05,0.0,0 STARLINK-4747,1 53832U 22114Q   23173.00096726  .00007370  00000-0  48054-3 0  9998,2 53832  53.2158  75.7318 0001151  85.3640 274.7484 15.08851009 42584,6917.847,95.437,540.508,538.915,0.0
53832.0,STARLINK-4747,PAYLOAD,2023-06-22 17:30:38,15.0884973,0.0001338,53.2167,72.4628,91.833,268.2816,0.0003252,4.893e-05,0.0,0 STARLINK-4747,1 53832U 22114Q   23173.72960668  .00004893  00000-0  32520-3 0  9990,2 53832  53.2167  72.4628 0001338  91.8330 268.2816 15.08849730 42694,6917.851,95.437,540.641,538.79,0.0
53832.0,STARLINK-4747,PAYLOAD,2023-06-23 17:21:24,15.08843726,0.0001254,53.2155,68.0003,97.4704,262.6431,0.00011826,1.595e-05,0.0,0 STARLINK-4747,1 53832U 22114Q   23174.72320507  .00001595  00000-0  11826-3 0  9995,2 53832  53.2155  68.0003 0001254  97.4704 262.6431 15.08843726 42840,6917.869,95.437,540.602,538.866,0.0
53832.0,STARLINK-4747,PAYLOAD,2023-06-25 02:44:30,15.0884998,0.0001084,53.2161,61.7559,91.182,268.9296,0.00026139,3.876e-05,0.0,0 STARLINK-4747,1 53832U 22114Q   23176.11424268  .00003876  00000-0  26139-3 0  9996,2 53832  53.2161  61.7559 0001084  91.1820 268.9296 15.08849980 43054,6917.85,95.437,540.465,538.965,0.0
53832.0,STARLINK-4747,PAYLOAD,2023-06-25 17:02:59,15.08835748,0.0001042,53.2164,59.0798,91.734,268.3771,-1.4455e-05,-5.18e-06,0.0,0 STARLINK-4747,1 53832U 22114Q   23176.71040789 -.00000518  00000-0 -14455-4 0  9995,2 53832  53.2164  59.0798 0001042  91.7340 268.3771 15.08835748 43148,6917.893,95.438,540.479,539.038,0.0
53832.0,STARLINK-4747,PAYLOAD,2023-06-26 21:39:55,15.08840202,0.000109,53.217,53.7266,91.8803,268.2314,1.173e-05,-1.01e-06,0.0,0 STARLINK-4747,1 53832U 22114Q   23177.90272883 -.00000101  00000-0  11730-4 0  9999,2 53832  53.2170  53.7266 0001090  91.8803 268.2314 15.08840202 43327,6917.88,95.438,540.499,538.991,0.0
53832.0,STARLINK-4747,PAYLOAD,2023-06-27 23:06:06,15.08843936,0.0001075,53.2174,48.9693,86.7385,273.373,0.00014904,2.085e-05,0.0,0 STARLINK-4747,1 53832U 22114Q   23178.96257001  .00002085  00000-0  14904-3 0  9998,2 53832  53.2174  48.9693 0001075  86.7385 273.3730 15.08843936 43485,6917.868,95.437,540.477,538.99,0.0
53832.0,STARLINK-4747,PAYLOAD,2023-06-29 00:32:16,15.08842639,0.0001108,53.2181,44.2125,86.6872,273.4247,8.4218e-05,1.053e-05,0.0,0 STARLINK-4747,1 53832U 22114Q   23180.02241401  .00001053  00000-0  84218-4 0  9995,2 53832  53.2181  44.2125 0001108  86.6872 273.4247 15.08842639 43640,6917.872,95.437,540.504,538.971,0.0
53832.0,STARLINK-4747,PAYLOAD,2023-06-30 14:41:31,15.08840036,9.51e-05,53.2172,37.0741,84.7164,275.3936,4.7639e-05,4.71e-06,0.0,0 STARLINK-4747,1 53832U 22114Q   23181.61217441  .00000471  00000-0  47639-4 0  9997,2 53832  53.2172  37.0741 0000951  84.7164 275.3936 15.08840036 43883,6917.88,95.438,540.403,539.087,0.0
53832.0,STARLINK-4747,PAYLOAD,2023-07-01 17:43:05,15.08837601,0.0001094,53.2185,32.0219,83.8158,276.2959,4.9736e-05,5.04e-06,0.0,0 STARLINK-4747,1 53832U 22114Q   23182.73825663  .00000504  00000-0  49736-4 0  9999,2 53832  53.2185  32.0219 0001094  83.8158 276.2959 15.08837601 44053,6917.888,95.438,540.51,538.996,0.0
53832.0,STARLINK-4747,PAYLOAD,2023-07-02 01:40:00,15.08845852,0.0001052,53.2186,30.534,89.0207,271.0906,4.8915e-05,4.91e-06,0.0,0 STARLINK-4747,1 53832U 22114Q   23183.06945089  .00000491  00000-0  48915-4 0  9994,2 53832  53.2186  30.5340 0001052  89.0207 271.0906 15.08845852 44107,6917.863,95.437,540.455,539.0,0.0
53832.0,STARLINK-4747,PAYLOAD,2023-07-02 12:47:42,15.08837933,0.0001318,53.2199,28.4551,102.3719,257.7421,6.2516e-05,7.07e-06,0.0,0 STARLINK-4747,1 53832U 22114Q   23183.53313630  .00000707  00000-0  62516-4 0  9990,2 53832  53.2199  28.4551 0001318 102.3719 257.7421 15.08837933 44174,6917.887,95.438,540.663,538.84,0.0
53832.0,STARLINK-4747,PAYLOAD,2023-07-03 06:16:58,15.08833535,0.0001351,53.2186,25.1812,85.7673,274.3473,2.096e-05,4.6e-07,0.0,0 STARLINK-4747,1 53832U 22114Q   23184.26178317  .00000046  00000-0  20960-4 0  9995,2 53832  53.2186  25.1812 0001351  85.7673 274.3473 15.08833535 44282,6917.9,95.438,540.7,538.831,0.0
53832.0,STARLINK-4747,PAYLOAD,2023-07-04 01:21:35,15.088431,0.0001138,53.2184,21.6126,94.9355,265.1767,0.00011208,1.497e-05,0.0,0 STARLINK-4747,1 53832U 22114Q   23185.05665678  .00001497  00000-0  11208-3 0  9999,2 53832  53.2184  21.6126 0001138  94.9355 265.1767 15.08843100 44408,6917.871,95.437,540.523,538.949,0.0
53832.0,STARLINK-4747,PAYLOAD,2023-07-04 15:40:03,15.0883538,0.0001613,53.2187,18.936,112.9831,247.1331,0.00013819,1.912e-05,0.0,0 STARLINK-4747,1 53832U 22114Q   23185.65282207  .00001912  00000-0  13819-3 0  9990,2 53832  53.2187  18.9360 0001613 112.9831 247.1331 15.08835380 44495,6917.895,95.438,540.875,538.644,0.0
